CCSDS_OMM_VERS = 2.0
CREATION_DATE  = 
ORIGINATOR     = 

OBJECT_NAME    = SL-14 R/B
OBJECT_ID      = 1986-046B
CENTER_NAME    = EARTH
REF_FRAME      = TEME
TIME_SYSTEM    = UTC
MEAN_ELEMENT_THEORY = SGP/SGP4

EPOCH          = 2025-12-09T11:33:01.327968
MEAN_MOTION    = 14.85479643
ECCENTRICITY   = .0023515
INCLINATION    = 82.4811
RA_OF_ASC_NODE = 165.3916
ARG_OF_PERICENTER = 162.7487
MEAN_ANOMALY   = 197.4534

EPHEMERIS_TYPE = 0
CLASSIFICATION_TYPE = U
NORAD_CAT_ID   = 16792
ELEMENT_SET_NO = 999
REV_AT_EPOCH   = 11301
BSTAR          = .10294E-3
MEAN_MOTION_DOT = .916E-5
MEAN_MOTION_DDOT = 0

CCSDS_OMM_VERS = 2.0
CREATION_DATE  = 
ORIGINATOR     = 

OBJECT_NAME    = SL-14 R/B
OBJECT_ID      = 1986-055B
CENTER_NAME    = EARTH
REF_FRAME      = TEME
TIME_SYSTEM    = UTC
MEAN_ELEMENT_THEORY = SGP/SGP4

EPOCH          = 2025-12-09T03:40:34.006368
MEAN_MOTION    = 14.85526142
ECCENTRICITY   = .0017463
INCLINATION    = 82.5208
RA_OF_ASC_NODE = 211.7428
ARG_OF_PERICENTER = 272.3667
MEAN_ANOMALY   = 204.2461

EPHEMERIS_TYPE = 0
CLASSIFICATION_TYPE = U
NORAD_CAT_ID   = 16882
ELEMENT_SET_NO = 999
REV_AT_EPOCH   = 10592
BSTAR          = .97087E-4
MEAN_MOTION_DOT = .864E-5
MEAN_MOTION_DDOT = 0

CCSDS_OMM_VERS = 2.0
CREATION_DATE  = 
ORIGINATOR     = 

OBJECT_NAME    = AJISAI (EGS)
OBJECT_ID      = 1986-061A
CENTER_NAME    = EARTH
REF_FRAME      = TEME
TIME_SYSTEM    = UTC
MEAN_ELEMENT_THEORY = SGP/SGP4

EPOCH          = 2025-12-09T11:16:34.867200
MEAN_MOTION    = 12.44514233
ECCENTRICITY   = .0011292
INCLINATION    = 50.0114
RA_OF_ASC_NODE = 10.7719
ARG_OF_PERICENTER = 57.7143
MEAN_ANOMALY   = 98.5648

EPHEMERIS_TYPE = 0
CLASSIFICATION_TYPE = U
NORAD_CAT_ID   = 16908
ELEMENT_SET_NO = 999
REV_AT_EPOCH   = 45676
BSTAR          = .67861E-4
MEAN_MOTION_DOT = -.88E-6
MEAN_MOTION_DDOT = 0

CCSDS_OMM_VERS = 2.0
CREATION_DATE  = 
ORIGINATOR     = 

OBJECT_NAME    = COSMOS 1812
OBJECT_ID      = 1987-003A
CENTER_NAME    = EARTH
REF_FRAME      = TEME
TIME_SYSTEM    = UTC
MEAN_ELEMENT_THEORY = SGP/SGP4

EPOCH          = 2025-12-09T08:43:00.665760
MEAN_MOTION    = 15.74593218
ECCENTRICITY   = .0007274
INCLINATION    = 82.4870
RA_OF_ASC_NODE = 295.6692
ARG_OF_PERICENTER = 91.9685
MEAN_ANOMALY   = 268.2412

EPHEMERIS_TYPE = 0
CLASSIFICATION_TYPE = U
NORAD_CAT_ID   = 17295
ELEMENT_SET_NO = 999
REV_AT_EPOCH   = 13012
BSTAR          = .75157E-3
MEAN_MOTION_DOT = .110817E-2
MEAN_MOTION_DDOT = 0

CCSDS_OMM_VERS = 2.0
CREATION_DATE  = 
ORIGINATOR     = 

OBJECT_NAME    = SL-14 R/B
OBJECT_ID      = 1987-024B
CENTER_NAME    = EARTH
REF_FRAME      = TEME
TIME_SYSTEM    = UTC
MEAN_ELEMENT_THEORY = SGP/SGP4

EPOCH          = 2025-12-09T11:31:15.321216
MEAN_MOTION    = 14.86018976
ECCENTRICITY   = .0017799
INCLINATION    = 82.5277
RA_OF_ASC_NODE = 177.5167
ARG_OF_PERICENTER = 195.1865
MEAN_ANOMALY   = 164.8820

EPHEMERIS_TYPE = 0
CLASSIFICATION_TYPE = U
NORAD_CAT_ID   = 17567
ELEMENT_SET_NO = 999
REV_AT_EPOCH   = 7473
BSTAR          = .94448E-4
MEAN_MOTION_DOT = .852E-5
MEAN_MOTION_DDOT = 0

CCSDS_OMM_VERS = 2.0
CREATION_DATE  = 
ORIGINATOR     = 

OBJECT_NAME    = COSMOS 1833
OBJECT_ID      = 1987-027A
CENTER_NAME    = EARTH
REF_FRAME      = TEME
TIME_SYSTEM    = UTC
MEAN_ELEMENT_THEORY = SGP/SGP4

EPOCH          = 2025-12-09T11:04:24.154752
MEAN_MOTION    = 14.13020250
ECCENTRICITY   = .0022396
INCLINATION    = 70.9134
RA_OF_ASC_NODE = 155.6691
ARG_OF_PERICENTER = 336.3021
MEAN_ANOMALY   = 23.7066

EPHEMERIS_TYPE = 0
CLASSIFICATION_TYPE = U
NORAD_CAT_ID   = 17589
ELEMENT_SET_NO = 999
REV_AT_EPOCH   = 99756
BSTAR          = .855E-4
MEAN_MOTION_DOT = .112E-5
MEAN_MOTION_DDOT = 0

CCSDS_OMM_VERS = 2.0
CREATION_DATE  = 
ORIGINATOR     = 

OBJECT_NAME    = SL-16 R/B
OBJECT_ID      = 1987-027B
CENTER_NAME    = EARTH
REF_FRAME      = TEME
TIME_SYSTEM    = UTC
MEAN_ELEMENT_THEORY = SGP/SGP4

EPOCH          = 2025-12-09T11:38:19.883040
MEAN_MOTION    = 14.17152221
ECCENTRICITY   = .0007482
INCLINATION    = 71.0026
RA_OF_ASC_NODE = 106.5762
ARG_OF_PERICENTER = 262.9748
MEAN_ANOMALY   = 97.0524

EPHEMERIS_TYPE = 0
CLASSIFICATION_TYPE = U
NORAD_CAT_ID   = 17590
ELEMENT_SET_NO = 999
REV_AT_EPOCH   = 256
BSTAR          = -.21476E-4
MEAN_MOTION_DOT = -.91E-6
MEAN_MOTION_DDOT = 0

CCSDS_OMM_VERS = 2.0
CREATION_DATE  = 
ORIGINATOR     = 

OBJECT_NAME    = SL-14 R/B
OBJECT_ID      = 1987-038B
CENTER_NAME    = EARTH
REF_FRAME      = TEME
TIME_SYSTEM    = UTC
MEAN_ELEMENT_THEORY = SGP/SGP4

EPOCH          = 2025-12-09T11:54:17.637408
MEAN_MOTION    = 14.85257173
ECCENTRICITY   = .0020856
INCLINATION    = 82.5019
RA_OF_ASC_NODE = 21.7562
ARG_OF_PERICENTER = 102.0277
MEAN_ANOMALY   = 258.3278

EPHEMERIS_TYPE = 0
CLASSIFICATION_TYPE = U
NORAD_CAT_ID   = 17912
ELEMENT_SET_NO = 999
REV_AT_EPOCH   = 6584
BSTAR          = .88109E-4
MEAN_MOTION_DOT = .783E-5
MEAN_MOTION_DDOT = 0

CCSDS_OMM_VERS = 2.0
CREATION_DATE  = 
ORIGINATOR     = 

OBJECT_NAME    = COSMOS 1844
OBJECT_ID      = 1987-041A
CENTER_NAME    = EARTH
REF_FRAME      = TEME
TIME_SYSTEM    = UTC
MEAN_ELEMENT_THEORY = SGP/SGP4

EPOCH          = 2025-12-09T09:06:52.102080
MEAN_MOTION    = 14.14526374
ECCENTRICITY   = .0030169
INCLINATION    = 70.8982
RA_OF_ASC_NODE = 224.6581
ARG_OF_PERICENTER = 162.4934
MEAN_ANOMALY   = 197.7235

EPHEMERIS_TYPE = 0
CLASSIFICATION_TYPE = U
NORAD_CAT_ID   = 17973
ELEMENT_SET_NO = 999
REV_AT_EPOCH   = 99081
BSTAR          = -.3302E-4
MEAN_MOTION_DOT = -.112E-5
MEAN_MOTION_DDOT = 0

CCSDS_OMM_VERS = 2.0
CREATION_DATE  = 
ORIGINATOR     = 

OBJECT_NAME    = SL-14 R/B
OBJECT_ID      = 1987-055B
CENTER_NAME    = EARTH
REF_FRAME      = TEME
TIME_SYSTEM    = UTC
MEAN_ELEMENT_THEORY = SGP/SGP4

EPOCH          = 2025-12-09T08:29:25.358208
MEAN_MOTION    = 14.85516324
ECCENTRICITY   = .0019591
INCLINATION    = 82.5001
RA_OF_ASC_NODE = 74.1793
ARG_OF_PERICENTER = 315.2128
MEAN_ANOMALY   = 44.7506

EPHEMERIS_TYPE = 0
CLASSIFICATION_TYPE = U
NORAD_CAT_ID   = 18153
ELEMENT_SET_NO = 999
REV_AT_EPOCH   = 5652
BSTAR          = .10634E-3
MEAN_MOTION_DOT = .945E-5
MEAN_MOTION_DDOT = 0

CCSDS_OMM_VERS = 2.0
CREATION_DATE  = 
ORIGINATOR     = 

OBJECT_NAME    = COSMOS 1867
OBJECT_ID      = 1987-060A
CENTER_NAME    = EARTH
REF_FRAME      = TEME
TIME_SYSTEM    = UTC
MEAN_ELEMENT_THEORY = SGP/SGP4

EPOCH          = 2025-12-09T07:39:50.354784
MEAN_MOTION    = 14.31485392
ECCENTRICITY   = .001364
INCLINATION    = 65.0096
RA_OF_ASC_NODE = 199.7813
ARG_OF_PERICENTER = 270.7606
MEAN_ANOMALY   = 89.1915

EPHEMERIS_TYPE = 0
CLASSIFICATION_TYPE = U
NORAD_CAT_ID   = 18187
ELEMENT_SET_NO = 999
REV_AT_EPOCH   = 700
BSTAR          = .49823E-4
MEAN_MOTION_DOT = .32E-6
MEAN_MOTION_DDOT = 0

CCSDS_OMM_VERS = 2.0
CREATION_DATE  = 
ORIGINATOR     = 

OBJECT_NAME    = SL-14 R/B
OBJECT_ID      = 1988-001B
CENTER_NAME    = EARTH
REF_FRAME      = TEME
TIME_SYSTEM    = UTC
MEAN_ELEMENT_THEORY = SGP/SGP4

EPOCH          = 2025-12-09T08:14:05.864352
MEAN_MOTION    = 14.85418631
ECCENTRICITY   = .0018156
INCLINATION    = 82.5130
RA_OF_ASC_NODE = 280.3419
ARG_OF_PERICENTER = 172.1985
MEAN_ANOMALY   = 187.9517

EPHEMERIS_TYPE = 0
CLASSIFICATION_TYPE = U
NORAD_CAT_ID   = 18749
ELEMENT_SET_NO = 999
REV_AT_EPOCH   = 2861
BSTAR          = .10553E-3
MEAN_MOTION_DOT = .935E-5
MEAN_MOTION_DDOT = 0

